STARLINK-35616          
1 66255U 25245X   26086.58186558  .00027040  00000+0  92250-3 0  9993
2 66255  53.1583 200.9411 0001237  86.3978 273.7164 15.30174187 23992
STARLINK-35619          
1 66256U 25245Y   26086.73137882  .00027011  00000+0  92123-3 0  9994
2 66256  53.1570 199.7408 0001089  82.4584 277.6541 15.30184384 24022
STARLINK-35615          
1 66257U 25245Z   26086.73771080  .00023555  00000+0  80556-3 0  9995
2 66257  53.1573 199.7811 0000979  62.2560 297.8540 15.30173307 24027
STARLINK-34650          
1 66258U 25245AA  26086.80619178  .00034362  00000+0  11680-2 0  9992
2 66258  53.1576 199.4980 0001159  56.5424 303.5687 15.30171920 24038
STARLINK-35529          
1 66259U 25245AB  26086.69244272  .00024047  00000+0  82181-3 0  9993
2 66259  53.1592 200.2088 0000984  91.0247 269.0866 15.30183755 24011
STARLINK-35420          
1 66260U 25245AC  26086.69560995  .00013649  00000+0  47232-3 0  9992
2 66260  53.1588 200.2294 0000931  98.3084 261.8022 15.30184549 24014
STARLINK-35536          
1 66261U 25245AD  26086.81674292  .00038166  00000+0  12945-2 0  9996
2 66261  53.1587 199.5627 0001374  64.0260 296.0882 15.30190324 24036
STARLINK-35487          
1 66262U 25245AE  26086.69139007  .00024849  00000+0  84896-3 0  9991
2 66262  53.1585 200.2017 0000973  80.3200 279.7911 15.30174246 23964
STARLINK-35801          
1 66265U 25247A   26086.75635671  .00015433  00000+0  53203-3 0  9998
2 66265  53.1593 107.2497 0001728  72.6540 287.4650 15.30203675 23802
STARLINK-35056          
1 66266U 25247B   26086.77640740  .00014422  00000+0  49808-3 0  9997
2 66266  53.1612 107.3743 0001668  84.6603 275.4588 15.30201403 23800
STARLINK-35550          
1 66267U 25247C   26086.75740378  .00014795  00000+0  51060-3 0  9990
2 66267  53.1586 107.2115 0001451  83.2494 276.8672 15.30202639 23807
STARLINK-35069          
1 66268U 25247D   26086.47726863  .00028587  00000+0  97339-3 0  9996
2 66268  53.1590 109.0656 0001165  85.8330 274.2804 15.30206493 23757
STARLINK-34910          
1 66269U 25247E   26086.77745512  .00011133  00000+0  38736-3 0  9997
2 66269  53.1606 107.3356 0001579  87.2185 272.8996 15.30208803 23806
STARLINK-35757          
1 66270U 25247F   26086.37501987  .00011676  00000+0  40566-3 0  9997
2 66270  53.1599 109.1359 0001461  82.6034 277.5133 15.30204061 23799
STARLINK-35745          
1 66271U 25247G   26086.46882749  .00033123  00000+0  11252-2 0  9996
2 66271  53.1596 109.0105 0001047  74.7132 285.3985 15.30207516 23808
STARLINK-35741          
1 66272U 25247H   26086.74791332  .00013195  00000+0  45670-3 0  9994
2 66272  53.1592 107.1999 0001747  97.3343 262.7856 15.30210010 23851
