[{"OBJECT_NAME":"STARLINK-35616","OBJECT_ID":"2025-245X","EPOCH":"2026-03-27T13:57:53.186112","MEAN_MOTION":15.30174187,"ECCENTRICITY":0.0001237,"INCLINATION":53.1583,"RA_OF_ASC_NODE":200.9411,"ARG_OF_PERICENTER":86.3978,"MEAN_ANOMALY":273.7164,"EPHEMERIS_TYPE":0,"CLASSIFICATION_TYPE":"U","NORAD_CAT_ID":66255,"ELEMENT_SET_NO":999,"REV_AT_EPOCH":2399,"BSTAR":0.0009225,"MEAN_MOTION_DOT":0.0002704,"MEAN_MOTION_DDOT":0},{"OBJECT_NAME":"STARLINK-35619","OBJECT_ID":"2025-245Y","EPOCH":"2026-03-27T17:33:11.129184","MEAN_MOTION":15.30184384,"ECCENTRICITY":0.0001089,"INCLINATION":53.157,"RA_OF_ASC_NODE":199.7408,"ARG_OF_PERICENTER":82.4584,"MEAN_ANOMALY":277.6541,"EPHEMERIS_TYPE":0,"CLASSIFICATION_TYPE":"U","NORAD_CAT_ID":66256,"ELEMENT_SET_NO":999,"REV_AT_EPOCH":2402,"BSTAR":0.00092123,"MEAN_MOTION_DOT":0.00027011,"MEAN_MOTION_DDOT":0},{"OBJECT_NAME":"STARLINK-35615","OBJECT_ID":"2025-245Z","EPOCH":"2026-03-27T17:42:18.212256","MEAN_MOTION":15.30173307,"ECCENTRICITY":9.8e-5,"INCLINATION":53.1573,"RA_OF_ASC_NODE":199.7811,"ARG_OF_PERICENTER":62.256,"MEAN_ANOMALY":297.854,"EPHEMERIS_TYPE":0,"CLASSIFICATION_TYPE":"U","NORAD_CAT_ID":66257,"ELEMENT_SET_NO":999,"REV_AT_EPOCH":2402,"BSTAR":0.00080556,"MEAN_MOTION_DOT":0.00023555,"MEAN_MOTION_DDOT":0},{"OBJECT_NAME":"STARLINK-34650","OBJECT_ID":"2025-245AA","EPOCH":"2026-03-27T19:20:54.968928","MEAN_MOTION":15.3017192,"ECCENTRICITY":0.000116,"INCLINATION":53.1576,"RA_OF_ASC_NODE":199.498,"ARG_OF_PERICENTER":56.5424,"MEAN_ANOMALY":303.5687,"EPHEMERIS_TYPE":0,"CLASSIFICATION_TYPE":"U","NORAD_CAT_ID":66258,"ELEMENT_SET_NO":999,"REV_AT_EPOCH":2403,"BSTAR":0.001168,"MEAN_MOTION_DOT":0.00034362,"MEAN_MOTION_DDOT":0},{"OBJECT_NAME":"STARLINK-35529","OBJECT_ID":"2025-245AB","EPOCH":"2026-03-27T16:37:07.051008","MEAN_MOTION":15.30183755,"ECCENTRICITY":9.84e-5,"INCLINATION":53.1592,"RA_OF_ASC_NODE":200.2088,"ARG_OF_PERICENTER":91.0247,"MEAN_ANOMALY":269.0866,"EPHEMERIS_TYPE":0,"CLASSIFICATION_TYPE":"U","NORAD_CAT_ID":66259,"ELEMENT_SET_NO":999,"REV_AT_EPOCH":2401,"BSTAR":0.00082181,"MEAN_MOTION_DOT":0.00024047,"MEAN_MOTION_DDOT":0},{"OBJECT_NAME":"STARLINK-35420","OBJECT_ID":"2025-245AC","EPOCH":"2026-03-27T16:41:40.699680","MEAN_MOTION":15.30184549,"ECCENTRICITY":9.31e-5,"INCLINATION":53.1588,"RA_OF_ASC_NODE":200.2294,"ARG_OF_PERICENTER":98.3084,"MEAN_ANOMALY":261.8022,"EPHEMERIS_TYPE":0,"CLASSIFICATION_TYPE":"U","NORAD_CAT_ID":66260,"ELEMENT_SET_NO":999,"REV_AT_EPOCH":2401,"BSTAR":0.00047232,"MEAN_MOTION_DOT":0.00013649,"MEAN_MOTION_DDOT":0},{"OBJECT_NAME":"STARLINK-35536","OBJECT_ID":"2025-245AD","EPOCH":"2026-03-27T19:36:06.588288","MEAN_MOTION":15.30190324,"ECCENTRICITY":0.0001375,"INCLINATION":53.1587,"RA_OF_ASC_NODE":199.5627,"ARG_OF_PERICENTER":64.026,"MEAN_ANOMALY":296.0882,"EPHEMERIS_TYPE":0,"CLASSIFICATION_TYPE":"U","NORAD_CAT_ID":66261,"ELEMENT_SET_NO":999,"REV_AT_EPOCH":2403,"BSTAR":0.0012945,"MEAN_MOTION_DOT":0.00038166,"MEAN_MOTION_DDOT":0},{"OBJECT_NAME":"STARLINK-35487","OBJECT_ID":"2025-245AE","EPOCH":"2026-03-27T16:35:36.101184","MEAN_MOTION":15.30174246,"ECCENTRICITY":9.73e-5,"INCLINATION":53.1585,"RA_OF_ASC_NODE":200.2017,"ARG_OF_PERICENTER":80.32,"MEAN_ANOMALY":279.7911,"EPHEMERIS_TYPE":0,"CLASSIFICATION_TYPE":"U","NORAD_CAT_ID":66262,"ELEMENT_SET_NO":999,"REV_AT_EPOCH":2396,"BSTAR":0.00084896,"MEAN_MOTION_DOT":0.00024849,"MEAN_MOTION_DDOT":0},{"OBJECT_NAME":"STARLINK-35801","OBJECT_ID":"2025-247A","EPOCH":"2026-03-27T18:09:09.218880","MEAN_MOTION":15.30203675,"ECCENTRICITY":0.0001729,"INCLINATION":53.1593,"RA_OF_ASC_NODE":107.2497,"ARG_OF_PERICENTER":72.654,"MEAN_ANOMALY":287.465,"EPHEMERIS_TYPE":0,"CLASSIFICATION_TYPE":"U","NORAD_CAT_ID":66265,"ELEMENT_SET_NO":999,"REV_AT_EPOCH":2380,"BSTAR":0.00053203,"MEAN_MOTION_DOT":0.00015433,"MEAN_MOTION_DDOT":0},{"OBJECT_NAME":"STARLINK-35056","OBJECT_ID":"2025-247B","EPOCH":"2026-03-27T18:38:01.599360","MEAN_MOTION":15.30201403,"ECCENTRICITY":0.0001669,"INCLINATION":53.1612,"RA_OF_ASC_NODE":107.3743,"ARG_OF_PERICENTER":84.6603,"MEAN_ANOMALY":275.4588,"EPHEMERIS_TYPE":0,"CLASSIFICATION_TYPE":"U","NORAD_CAT_ID":66266,"ELEMENT_SET_NO":999,"REV_AT_EPOCH":2380,"BSTAR":0.00049808,"MEAN_MOTION_DOT":0.00014422,"MEAN_MOTION_DDOT":0},{"OBJECT_NAME":"STARLINK-35550","OBJECT_ID":"2025-247C","EPOCH":"2026-03-27T18:10:39.685728","MEAN_MOTION":15.30202639,"ECCENTRICITY":0.0001452,"INCLINATION":53.1586,"RA_OF_ASC_NODE":107.2115,"ARG_OF_PERICENTER":83.2494,"MEAN_ANOMALY":276.8672,"EPHEMERIS_TYPE":0,"CLASSIFICATION_TYPE":"U","NORAD_CAT_ID":66267,"ELEMENT_SET_NO":999,"REV_AT_EPOCH":2380,"BSTAR":0.0005106,"MEAN_MOTION_DOT":0.00014795,"MEAN_MOTION_DDOT":0},{"OBJECT_NAME":"STARLINK-35069","OBJECT_ID":"2025-247D","EPOCH":"2026-03-27T11:27:16.009632","MEAN_MOTION":15.30206493,"ECCENTRICITY":0.0001165,"INCLINATION":53.159,"RA_OF_ASC_NODE":109.0656,"ARG_OF_PERICENTER":85.833,"MEAN_ANOMALY":274.2804,"EPHEMERIS_TYPE":0,"CLASSIFICATION_TYPE":"U","NORAD_CAT_ID":66268,"ELEMENT_SET_NO":999,"REV_AT_EPOCH":2375,"BSTAR":0.00097339,"MEAN_MOTION_DOT":0.00028587,"MEAN_MOTION_DDOT":0},{"OBJECT_NAME":"STARLINK-34910","OBJECT_ID":"2025-247E","EPOCH":"2026-03-27T18:39:32.122368","MEAN_MOTION":15.30208803,"ECCENTRICITY":0.0001579,"INCLINATION":53.1606,"RA_OF_ASC_NODE":107.3356,"ARG_OF_PERICENTER":87.2185,"MEAN_ANOMALY":272.8996,"EPHEMERIS_TYPE":0,"CLASSIFICATION_TYPE":"U","NORAD_CAT_ID":66269,"ELEMENT_SET_NO":999,"REV_AT_EPOCH":2380,"BSTAR":0.00038736,"MEAN_MOTION_DOT":0.00011133,"MEAN_MOTION_DDOT":0},{"OBJECT_NAME":"STARLINK-35757","OBJECT_ID":"2025-247F","EPOCH":"2026-03-27T09:00:01.716768","MEAN_MOTION":15.30204061,"ECCENTRICITY":0.0001461,"INCLINATION":53.1599,"RA_OF_ASC_NODE":109.1359,"ARG_OF_PERICENTER":82.6034,"MEAN_ANOMALY":277.5133,"EPHEMERIS_TYPE":0,"CLASSIFICATION_TYPE":"U","NORAD_CAT_ID":66270,"ELEMENT_SET_NO":999,"REV_AT_EPOCH":2379,"BSTAR":0.00040566,"MEAN_MOTION_DOT":0.00011676,"MEAN_MOTION_DDOT":0},{"OBJECT_NAME":"STARLINK-35745","OBJECT_ID":"2025-247G","EPOCH":"2026-03-27T11:15:06.695136","MEAN_MOTION":15.30207516,"ECCENTRICITY":0.0001047,"INCLINATION":53.1596,"RA_OF_ASC_NODE":109.0105,"ARG_OF_PERICENTER":74.7132,"MEAN_ANOMALY":285.3985,"EPHEMERIS_TYPE":0,"CLASSIFICATION_TYPE":"U","NORAD_CAT_ID":66271,"ELEMENT_SET_NO":999,"REV_AT_EPOCH":2380,"BSTAR":0.0011252,"MEAN_MOTION_DOT":0.00033123,"MEAN_MOTION_DDOT":0},{"OBJECT_NAME":"STARLINK-35741","OBJECT_ID":"2025-247H","EPOCH":"2026-03-27T17:56:59.709984","MEAN_MOTION":15.3021001,"ECCENTRICITY":0.0001747,"INCLINATION":53.1592,"RA_OF_ASC_NODE":107.1999,"ARG_OF_PERICENTER":97.3343,"MEAN_ANOMALY":262.7856,"EPHEMERIS_TYPE":0,"CLASSIFICATION_TYPE":"U","NORAD_CAT_ID":66272,"ELEMENT_SET_NO":999,"REV_AT_EPOCH":2385,"BSTAR":0.0004567,"MEAN_MOTION_DOT":0.00013195,"MEAN_MOTION_DDOT":0}]
